[{"OBJECT_NAME":"STARLINK-4577","OBJECT_ID":"2022-101AP","EPOCH":"2026-03-09T08:30:29.776320","MEAN_MOTION":15.08844388,"ECCENTRICITY":0.00014015,"INCLINATION":53.2182,"RA_OF_ASC_NODE":55.6902,"ARG_OF_PERICENTER":84.0483,"MEAN_ANOMALY":276.0669,"EPHEMERIS_TYPE":0,"CLASSIFICATION_TYPE":"U","NORAD_CAT_ID":53564,"ELEMENT_SET_NO":999,"REV_AT_EPOCH":19639,"BSTAR":0.00010470597,"MEAN_MOTION_DOT":1.379e-5,"MEAN_MOTION_DDOT":0},{"OBJECT_NAME":"NOAA 17 DEB","OBJECT_ID":"2002-032BW","EPOCH":"2026-03-08T22:40:23.580768","MEAN_MOTION":15.05196658,"ECCENTRICITY":0.00149213,"INCLINATION":98.7181,"RA_OF_ASC_NODE":121.0481,"ARG_OF_PERICENTER":217.4424,"MEAN_ANOMALY":142.5761,"EPHEMERIS_TYPE":0,"CLASSIFICATION_TYPE":"U","NORAD_CAT_ID":48737,"ELEMENT_SET_NO":999,"REV_AT_EPOCH":26108,"BSTAR":0.0055556624,"MEAN_MOTION_DOT":0.00080221,"MEAN_MOTION_DDOT":0}]
